DELTA 1 R/B             
1 20323U 89089B   25308.63110048  .00000394  00000+0  10612-3 0  9993
2 20323  97.0792 170.9020 0069769 156.6078 203.8321 14.50522860877605
ARIANE 40 R/B           
1 20443U 90005H   25308.58613950  .00000358  00000+0  12779-3 0  9996
2 20443  98.3297   7.8329 0009472 215.4442 144.6118 14.39752184874802
DELTA 2 R/B(1)          
1 20453U 90008B   25308.58627521  .00033719  00000+0  59857-3 0  9994
2 20453  35.6083 266.2483 0118510 191.7269 168.0693 15.41679548906731
COSMOS 2058             
1 20465U 90010A   25308.46168218  .00003489  00000+0  21256-3 0  9993
2 20465  82.4680 170.6835 0011530  46.9310 313.2883 15.10032569923330
SL-14 R/B               
1 20466U 90010B   25308.63494455  .00000543  00000+0  63158-4 0  9994
2 20466  82.5051  24.8274 0019658 356.5457   3.5619 14.83417436909948
SL-14 R/B               
1 20511U 90018B   25308.53248787  .00000473  00000+0  56578-4 0  9997
2 20511  82.5215 340.0796 0017422 139.9991 220.2511 14.81991418904046
HST                     
1 20580U 90037B   25307.98744179  .00007510  00000+0  26478-3 0  9992
2 20580  28.4664 176.1122 0001844 152.3920 207.6773 15.27300295754064
SL-16 R/B               
1 20625U 90046B   25308.64250333 -.00000119  00000+0 -36601-4 0  9990
2 20625  70.9991 200.5277 0012481 142.2290 217.9711 14.14992253830707
COSMOS 2084             
1 20663U 90055A   25308.55866035  .00003943  00000+0  28893-3 0  9993
2 20663  62.7921  42.0558 0038074 170.1393 190.0463 15.04665932917489
SL-6 R/B(2)             
1 20666U 90055D   25308.37706841  .00002524  00000+0  20211-3 0  9994
2 20666  62.7836 319.7389 0010657 274.4454  85.5428 15.02784979919354
SL-8 R/B                
1 20775U 90078B   25308.59017447  .00014261  00000+0  43993-3 0  9994
2 20775  82.9086   3.3918 0382734  73.4031 290.8845 14.83922895790716
SL-8 R/B                
1 21088U 91006B   25308.40988235  .00000126  00000+0  11146-3 0  9996
2 21088  82.9401 263.2255 0023307  29.3915  88.3643 13.77481415746824
