CCSDS_OMM_VERS = 2.0
CREATION_DATE  = 
ORIGINATOR     = 

OBJECT_NAME    = DELTA 1 R/B
OBJECT_ID      = 1989-089B
CENTER_NAME    = EARTH
REF_FRAME      = TEME
TIME_SYSTEM    = UTC
MEAN_ELEMENT_THEORY = SGP/SGP4

EPOCH          = 2025-11-04T15:08:47.081472
MEAN_MOTION    = 14.50522860
ECCENTRICITY   = .00697694
INCLINATION    = 97.0792
RA_OF_ASC_NODE = 170.9020
ARG_OF_PERICENTER = 156.6078
MEAN_ANOMALY   = 203.8321

EPHEMERIS_TYPE = 0
CLASSIFICATION_TYPE = U
NORAD_CAT_ID   = 20323
ELEMENT_SET_NO = 999
REV_AT_EPOCH   = 87760
BSTAR          = .10612221E-3
MEAN_MOTION_DOT = .394E-5
MEAN_MOTION_DDOT = 0

CCSDS_OMM_VERS = 2.0
CREATION_DATE  = 
ORIGINATOR     = 

OBJECT_NAME    = ARIANE 40 R/B
OBJECT_ID      = 1990-005H
CENTER_NAME    = EARTH
REF_FRAME      = TEME
TIME_SYSTEM    = UTC
MEAN_ELEMENT_THEORY = SGP/SGP4

EPOCH          = 2025-11-04T14:04:02.452800
MEAN_MOTION    = 14.39752184
ECCENTRICITY   = .00094726
INCLINATION    = 98.3297
RA_OF_ASC_NODE = 7.8329
ARG_OF_PERICENTER = 215.4442
MEAN_ANOMALY   = 144.6118

EPHEMERIS_TYPE = 0
CLASSIFICATION_TYPE = U
NORAD_CAT_ID   = 20443
ELEMENT_SET_NO = 999
REV_AT_EPOCH   = 87480
BSTAR          = .127793E-3
MEAN_MOTION_DOT = .358E-5
MEAN_MOTION_DDOT = 0

CCSDS_OMM_VERS = 2.0
CREATION_DATE  = 
ORIGINATOR     = 

OBJECT_NAME    = DELTA 2 R/B(1)
OBJECT_ID      = 1990-008B
CENTER_NAME    = EARTH
REF_FRAME      = TEME
TIME_SYSTEM    = UTC
MEAN_ELEMENT_THEORY = SGP/SGP4

EPOCH          = 2025-11-04T14:04:14.178144
MEAN_MOTION    = 15.41679548
ECCENTRICITY   = .01185101
INCLINATION    = 35.6083
RA_OF_ASC_NODE = 266.2483
ARG_OF_PERICENTER = 191.7269
MEAN_ANOMALY   = 168.0693

EPHEMERIS_TYPE = 0
CLASSIFICATION_TYPE = U
NORAD_CAT_ID   = 20453
ELEMENT_SET_NO = 999
REV_AT_EPOCH   = 90673
BSTAR          = .59857306E-3
MEAN_MOTION_DOT = .33719E-3
MEAN_MOTION_DDOT = 0

CCSDS_OMM_VERS = 2.0
CREATION_DATE  = 
ORIGINATOR     = 

OBJECT_NAME    = COSMOS 2058
OBJECT_ID      = 1990-010A
CENTER_NAME    = EARTH
REF_FRAME      = TEME
TIME_SYSTEM    = UTC
MEAN_ELEMENT_THEORY = SGP/SGP4

EPOCH          = 2025-11-04T11:04:49.340352
MEAN_MOTION    = 15.10032569
ECCENTRICITY   = .00115306
INCLINATION    = 82.4680
RA_OF_ASC_NODE = 170.6835
ARG_OF_PERICENTER = 46.9310
MEAN_ANOMALY   = 313.2883

EPHEMERIS_TYPE = 0
CLASSIFICATION_TYPE = U
NORAD_CAT_ID   = 20465
ELEMENT_SET_NO = 999
REV_AT_EPOCH   = 92333
BSTAR          = .21255592E-3
MEAN_MOTION_DOT = .3489E-4
MEAN_MOTION_DDOT = 0

CCSDS_OMM_VERS = 2.0
CREATION_DATE  = 
ORIGINATOR     = 

OBJECT_NAME    = SL-14 R/B
OBJECT_ID      = 1990-010B
CENTER_NAME    = EARTH
REF_FRAME      = TEME
TIME_SYSTEM    = UTC
MEAN_ELEMENT_THEORY = SGP/SGP4

EPOCH          = 2025-11-04T15:14:19.209120
MEAN_MOTION    = 14.83417436
ECCENTRICITY   = .00196584
INCLINATION    = 82.5051
RA_OF_ASC_NODE = 24.8274
ARG_OF_PERICENTER = 356.5457
MEAN_ANOMALY   = 3.5619

EPHEMERIS_TYPE = 0
CLASSIFICATION_TYPE = U
NORAD_CAT_ID   = 20466
ELEMENT_SET_NO = 999
REV_AT_EPOCH   = 90994
BSTAR          = .63157811E-4
MEAN_MOTION_DOT = .543E-5
MEAN_MOTION_DDOT = 0

CCSDS_OMM_VERS = 2.0
CREATION_DATE  = 
ORIGINATOR     = 

OBJECT_NAME    = SL-14 R/B
OBJECT_ID      = 1990-018B
CENTER_NAME    = EARTH
REF_FRAME      = TEME
TIME_SYSTEM    = UTC
MEAN_ELEMENT_THEORY = SGP/SGP4

EPOCH          = 2025-11-04T12:46:46.951968
MEAN_MOTION    = 14.81991418
ECCENTRICITY   = .0017422
INCLINATION    = 82.5215
RA_OF_ASC_NODE = 340.0796
ARG_OF_PERICENTER = 139.9991
MEAN_ANOMALY   = 220.2511

EPHEMERIS_TYPE = 0
CLASSIFICATION_TYPE = U
NORAD_CAT_ID   = 20511
ELEMENT_SET_NO = 999
REV_AT_EPOCH   = 90404
BSTAR          = .56577794E-4
MEAN_MOTION_DOT = .473E-5
MEAN_MOTION_DDOT = 0

CCSDS_OMM_VERS = 2.0
CREATION_DATE  = 
ORIGINATOR     = 

OBJECT_NAME    = HST
OBJECT_ID      = 1990-037B
CENTER_NAME    = EARTH
REF_FRAME      = TEME
TIME_SYSTEM    = UTC
MEAN_ELEMENT_THEORY = SGP/SGP4

EPOCH          = 2025-11-03T23:41:54.970656
MEAN_MOTION    = 15.27300295
ECCENTRICITY   = .00018444
INCLINATION    = 28.4664
RA_OF_ASC_NODE = 176.1122
ARG_OF_PERICENTER = 152.3920
MEAN_ANOMALY   = 207.6773

EPHEMERIS_TYPE = 0
CLASSIFICATION_TYPE = U
NORAD_CAT_ID   = 20580
ELEMENT_SET_NO = 999
REV_AT_EPOCH   = 75406
BSTAR          = .26478104E-3
MEAN_MOTION_DOT = .751E-4
MEAN_MOTION_DDOT = 0

CCSDS_OMM_VERS = 2.0
CREATION_DATE  = 
ORIGINATOR     = 

OBJECT_NAME    = SL-16 R/B
OBJECT_ID      = 1990-046B
CENTER_NAME    = EARTH
REF_FRAME      = TEME
TIME_SYSTEM    = UTC
MEAN_ELEMENT_THEORY = SGP/SGP4

EPOCH          = 2025-11-04T15:25:12.287712
MEAN_MOTION    = 14.14992253
ECCENTRICITY   = .00124818
INCLINATION    = 70.9991
RA_OF_ASC_NODE = 200.5277
ARG_OF_PERICENTER = 142.2290
MEAN_ANOMALY   = 217.9711

EPHEMERIS_TYPE = 0
CLASSIFICATION_TYPE = U
NORAD_CAT_ID   = 20625
ELEMENT_SET_NO = 999
REV_AT_EPOCH   = 83070
BSTAR          = -.36601388E-4
MEAN_MOTION_DOT = -.119E-5
MEAN_MOTION_DDOT = 0

CCSDS_OMM_VERS = 2.0
CREATION_DATE  = 
ORIGINATOR     = 

OBJECT_NAME    = COSMOS 2084
OBJECT_ID      = 1990-055A
CENTER_NAME    = EARTH
REF_FRAME      = TEME
TIME_SYSTEM    = UTC
MEAN_ELEMENT_THEORY = SGP/SGP4

EPOCH          = 2025-11-04T13:24:28.254240
MEAN_MOTION    = 15.04665932
ECCENTRICITY   = .0038074
INCLINATION    = 62.7921
RA_OF_ASC_NODE = 42.0558
ARG_OF_PERICENTER = 170.1393
MEAN_ANOMALY   = 190.0463

EPHEMERIS_TYPE = 0
CLASSIFICATION_TYPE = U
NORAD_CAT_ID   = 20663
ELEMENT_SET_NO = 999
REV_AT_EPOCH   = 91748
BSTAR          = .28892587E-3
MEAN_MOTION_DOT = .3943E-4
MEAN_MOTION_DDOT = 0

CCSDS_OMM_VERS = 2.0
CREATION_DATE  = 
ORIGINATOR     = 

OBJECT_NAME    = SL-6 R/B(2)
OBJECT_ID      = 1990-055D
CENTER_NAME    = EARTH
REF_FRAME      = TEME
TIME_SYSTEM    = UTC
MEAN_ELEMENT_THEORY = SGP/SGP4

EPOCH          = 2025-11-04T09:02:58.710624
MEAN_MOTION    = 15.02784979
ECCENTRICITY   = .0010657
INCLINATION    = 62.7836
RA_OF_ASC_NODE = 319.7389
ARG_OF_PERICENTER = 274.4454
MEAN_ANOMALY   = 85.5428

EPHEMERIS_TYPE = 0
CLASSIFICATION_TYPE = U
NORAD_CAT_ID   = 20666
ELEMENT_SET_NO = 999
REV_AT_EPOCH   = 91935
BSTAR          = .20211464E-3
MEAN_MOTION_DOT = .2524E-4
MEAN_MOTION_DDOT = 0

CCSDS_OMM_VERS = 2.0
CREATION_DATE  = 
ORIGINATOR     = 

OBJECT_NAME    = SL-8 R/B
OBJECT_ID      = 1990-078B
CENTER_NAME    = EARTH
REF_FRAME      = TEME
TIME_SYSTEM    = UTC
MEAN_ELEMENT_THEORY = SGP/SGP4

EPOCH          = 2025-11-04T14:09:51.074208
MEAN_MOTION    = 14.83922895
ECCENTRICITY   = .03827345
INCLINATION    = 82.9086
RA_OF_ASC_NODE = 3.3918
ARG_OF_PERICENTER = 73.4031
MEAN_ANOMALY   = 290.8845

EPHEMERIS_TYPE = 0
CLASSIFICATION_TYPE = U
NORAD_CAT_ID   = 20775
ELEMENT_SET_NO = 999
REV_AT_EPOCH   = 79071
BSTAR          = .43993266E-3
MEAN_MOTION_DOT = .14261E-3
MEAN_MOTION_DDOT = 0

CCSDS_OMM_VERS = 2.0
CREATION_DATE  = 
ORIGINATOR     = 

OBJECT_NAME    = SL-8 R/B
OBJECT_ID      = 1991-006B
CENTER_NAME    = EARTH
REF_FRAME      = TEME
TIME_SYSTEM    = UTC
MEAN_ELEMENT_THEORY = SGP/SGP4

EPOCH          = 2025-11-04T09:50:13.835040
MEAN_MOTION    = 13.77481415
ECCENTRICITY   = .00233075
INCLINATION    = 82.9401
RA_OF_ASC_NODE = 263.2255
ARG_OF_PERICENTER = 29.3915
MEAN_ANOMALY   = 88.3643

EPHEMERIS_TYPE = 0
CLASSIFICATION_TYPE = U
NORAD_CAT_ID   = 21088
ELEMENT_SET_NO = 999
REV_AT_EPOCH   = 74682
BSTAR          = .11145587E-3
MEAN_MOTION_DOT = .126E-5
MEAN_MOTION_DDOT = 0

